[{"OBJECT_NAME":"STARLINK-4121","OBJECT_ID":"2022-076S","EPOCH":"2026-03-09T06:55:06.189312","MEAN_MOTION":15.08836378,"ECCENTRICITY":0.00013769,"INCLINATION":53.2165,"RA_OF_ASC_NODE":95.9222,"ARG_OF_PERICENTER":92.1134,"MEAN_ANOMALY":268.0016,"EPHEMERIS_TYPE":0,"CLASSIFICATION_TYPE":"U","NORAD_CAT_ID":53002,"ELEMENT_SET_NO":999,"REV_AT_EPOCH":20278,"BSTAR":-8.446069e-6,"MEAN_MOTION_DOT":-4.22e-6,"MEAN_MOTION_DDOT":0},{"OBJECT_NAME":"OBJECT J","OBJECT_ID":"2017-042J","EPOCH":"2026-03-09T23:17:19.167936","MEAN_MOTION":15.08203331,"ECCENTRICITY":0.00078186,"INCLINATION":97.4246,"RA_OF_ASC_NODE":235.0467,"ARG_OF_PERICENTER":81.5059,"MEAN_ANOMALY":278.7055,"EPHEMERIS_TYPE":0,"CLASSIFICATION_TYPE":"U","NORAD_CAT_ID":42833,"ELEMENT_SET_NO":999,"REV_AT_EPOCH":47205,"BSTAR":0.00039182004,"MEAN_MOTION_DOT":6.006e-5,"MEAN_MOTION_DDOT":0}]
